[{"OBJECT_NAME":"STARLINK-30497","OBJECT_ID":"2023-153W","EPOCH":"2026-03-08T17:33:50.388480","MEAN_MOTION":15.26752453,"ECCENTRICITY":0.00016398,"INCLINATION":43.0056,"RA_OF_ASC_NODE":72.1224,"ARG_OF_PERICENTER":251.9212,"MEAN_ANOMALY":108.1461,"EPHEMERIS_TYPE":0,"CLASSIFICATION_TYPE":"U","NORAD_CAT_ID":58011,"ELEMENT_SET_NO":999,"REV_AT_EPOCH":13475,"BSTAR":8.7316504e-5,"MEAN_MOTION_DOT":2.084e-5,"MEAN_MOTION_DDOT":0},{"OBJECT_NAME":"PHISAT 2","OBJECT_ID":"2024-149C","EPOCH":"2026-03-09T18:55:12.732384","MEAN_MOTION":15.29548632,"ECCENTRICITY":0.00011753,"INCLINATION":97.3806,"RA_OF_ASC_NODE":148.6498,"ARG_OF_PERICENTER":168.623,"MEAN_ANOMALY":191.5037,"EPHEMERIS_TYPE":0,"CLASSIFICATION_TYPE":"U","NORAD_CAT_ID":60470,"ELEMENT_SET_NO":999,"REV_AT_EPOCH":8679,"BSTAR":0.00031420974,"MEAN_MOTION_DOT":8.925e-5,"MEAN_MOTION_DDOT":0}]
